ORBVIEW 2 (SEASTAR)     
1 24883U 97037A   25327.39752084  .00000330  00000+0  13105-3 0  9996
2 24883  98.8453 123.9864 0002605  36.7812 323.3551 14.35395818493226
SL-16 R/B               
1 25400U 98043G   25327.43291125  .00000089  00000+0  56382-4 0  9995
2 25400  98.8094 275.1460 0009268 328.6005  31.4620 14.26018539423841
SL-16 R/B               
1 25407U 98045B   25327.41100978  .00000178  00000+0  11379-3 0  9992
2 25407  71.0124  45.0736 0008113 203.8425 156.2323 14.16169413412057
ISS (ZARYA)             
1 25544U 98067A   25327.25444303  .00013581  00000+0  25410-3 0  9996
2 25544  51.6318 238.9250 0003907 158.5410 201.5743 15.49011795539830
CZ-4B R/B               
1 25732U 99025C   25327.13680691  .00000079  00000+0  59287-4 0  9997
2 25732  98.6796   8.8527 0036073 291.9605 131.3249 14.18236527373068
OKEAN-O                 
1 25860U 99039A   25327.18485458  .00000781  00000+0  10986-3 0  9995
2 25860  97.9629  23.0535 0001121  68.7625 291.3707 14.80112605418631
SL-16 R/B               
1 25861U 99039B   25327.19877238  .00000702  00000+0  96233-4 0  9991
2 25861  98.0151  21.3462 0013647 240.4485 119.5367 14.81545033421096
DELTA 2 R/B             
1 25876U 99041E   25327.31052787  .00000968  00000+0  19567-3 0  9996
2 25876  51.7629   6.0009 0504892  34.5140 328.7510 14.11330056348005
HELIOS 1B               
1 25977U 99064A   25327.29214554  .00001734  00000+0  19935-3 0  9993
2 25977  98.1752 221.3825 0002470  69.5644 290.5835 14.87165209669448
TERRA                   
1 25994U 99068A   25327.41889088  .00000547  00000+0  12083-3 0  9998
2 25994  97.9774  19.8092 0003032 137.3963 279.1634 14.60919992379565
SL-16 R/B               
1 26070U 00006B   25327.39887088  .00000032  00000+0  40526-4 0  9996
2 26070  71.0018 321.3249 0017397 335.8241  24.2064 14.15801321333510
TITAN 4B R/B            
1 26474U 00047B   25327.45053845  .00003508  00000+0  22821-3 0  9990
2 26474  67.9901 339.0211 0040615 167.4818 192.7350 15.08579413376889
