CCSDS_OMM_VERS = 2.0
CREATION_DATE  = 
ORIGINATOR     = 

OBJECT_NAME    = ORBVIEW 2 (SEASTAR)
OBJECT_ID      = 1997-037A
CENTER_NAME    = EARTH
REF_FRAME      = TEME
TIME_SYSTEM    = UTC
MEAN_ELEMENT_THEORY = SGP/SGP4

EPOCH          = 2025-11-23T09:32:25.800576
MEAN_MOTION    = 14.35395818
ECCENTRICITY   = .0002605
INCLINATION    = 98.8453
RA_OF_ASC_NODE = 123.9864
ARG_OF_PERICENTER = 36.7812
MEAN_ANOMALY   = 323.3551

EPHEMERIS_TYPE = 0
CLASSIFICATION_TYPE = U
NORAD_CAT_ID   = 24883
ELEMENT_SET_NO = 999
REV_AT_EPOCH   = 49322
BSTAR          = .13105E-3
MEAN_MOTION_DOT = .33E-5
MEAN_MOTION_DDOT = 0

CCSDS_OMM_VERS = 2.0
CREATION_DATE  = 
ORIGINATOR     = 

OBJECT_NAME    = SL-16 R/B
OBJECT_ID      = 1998-043G
CENTER_NAME    = EARTH
REF_FRAME      = TEME
TIME_SYSTEM    = UTC
MEAN_ELEMENT_THEORY = SGP/SGP4

EPOCH          = 2025-11-23T10:23:23.532000
MEAN_MOTION    = 14.26018539
ECCENTRICITY   = .0009268
INCLINATION    = 98.8094
RA_OF_ASC_NODE = 275.1460
ARG_OF_PERICENTER = 328.6005
MEAN_ANOMALY   = 31.4620

EPHEMERIS_TYPE = 0
CLASSIFICATION_TYPE = U
NORAD_CAT_ID   = 25400
ELEMENT_SET_NO = 999
REV_AT_EPOCH   = 42384
BSTAR          = .56382E-4
MEAN_MOTION_DOT = .89E-6
MEAN_MOTION_DDOT = 0

CCSDS_OMM_VERS = 2.0
CREATION_DATE  = 
ORIGINATOR     = 

OBJECT_NAME    = SL-16 R/B
OBJECT_ID      = 1998-045B
CENTER_NAME    = EARTH
REF_FRAME      = TEME
TIME_SYSTEM    = UTC
MEAN_ELEMENT_THEORY = SGP/SGP4

EPOCH          = 2025-11-23T09:51:51.244992
MEAN_MOTION    = 14.16169413
ECCENTRICITY   = .0008113
INCLINATION    = 71.0124
RA_OF_ASC_NODE = 45.0736
ARG_OF_PERICENTER = 203.8425
MEAN_ANOMALY   = 156.2323

EPHEMERIS_TYPE = 0
CLASSIFICATION_TYPE = U
NORAD_CAT_ID   = 25407
ELEMENT_SET_NO = 999
REV_AT_EPOCH   = 41205
BSTAR          = .11379E-3
MEAN_MOTION_DOT = .178E-5
MEAN_MOTION_DDOT = 0

CCSDS_OMM_VERS = 2.0
CREATION_DATE  = 
ORIGINATOR     = 

OBJECT_NAME    = ISS (ZARYA)
OBJECT_ID      = 1998-067A
CENTER_NAME    = EARTH
REF_FRAME      = TEME
TIME_SYSTEM    = UTC
MEAN_ELEMENT_THEORY = SGP/SGP4

EPOCH          = 2025-11-23T06:06:23.877792
MEAN_MOTION    = 15.49011795
ECCENTRICITY   = .0003907
INCLINATION    = 51.6318
RA_OF_ASC_NODE = 238.9250
ARG_OF_PERICENTER = 158.5410
MEAN_ANOMALY   = 201.5743

EPHEMERIS_TYPE = 0
CLASSIFICATION_TYPE = U
NORAD_CAT_ID   = 25544
ELEMENT_SET_NO = 999
REV_AT_EPOCH   = 53983
BSTAR          = .2541E-3
MEAN_MOTION_DOT = .13581E-3
MEAN_MOTION_DDOT = 0

CCSDS_OMM_VERS = 2.0
CREATION_DATE  = 
ORIGINATOR     = 

OBJECT_NAME    = CZ-4B R/B
OBJECT_ID      = 1999-025C
CENTER_NAME    = EARTH
REF_FRAME      = TEME
TIME_SYSTEM    = UTC
MEAN_ELEMENT_THEORY = SGP/SGP4

EPOCH          = 2025-11-23T03:17:00.117024
MEAN_MOTION    = 14.18236527
ECCENTRICITY   = .0036073
INCLINATION    = 98.6796
RA_OF_ASC_NODE = 8.8527
ARG_OF_PERICENTER = 291.9605
MEAN_ANOMALY   = 131.3249

EPHEMERIS_TYPE = 0
CLASSIFICATION_TYPE = U
NORAD_CAT_ID   = 25732
ELEMENT_SET_NO = 999
REV_AT_EPOCH   = 37306
BSTAR          = .59287E-4
MEAN_MOTION_DOT = .79E-6
MEAN_MOTION_DDOT = 0

CCSDS_OMM_VERS = 2.0
CREATION_DATE  = 
ORIGINATOR     = 

OBJECT_NAME    = OKEAN-O
OBJECT_ID      = 1999-039A
CENTER_NAME    = EARTH
REF_FRAME      = TEME
TIME_SYSTEM    = UTC
MEAN_ELEMENT_THEORY = SGP/SGP4

EPOCH          = 2025-11-23T04:26:11.435712
MEAN_MOTION    = 14.80112605
ECCENTRICITY   = .0001121
INCLINATION    = 97.9629
RA_OF_ASC_NODE = 23.0535
ARG_OF_PERICENTER = 68.7625
MEAN_ANOMALY   = 291.3707

EPHEMERIS_TYPE = 0
CLASSIFICATION_TYPE = U
NORAD_CAT_ID   = 25860
ELEMENT_SET_NO = 999
REV_AT_EPOCH   = 41863
BSTAR          = .10986E-3
MEAN_MOTION_DOT = .781E-5
MEAN_MOTION_DDOT = 0

CCSDS_OMM_VERS = 2.0
CREATION_DATE  = 
ORIGINATOR     = 

OBJECT_NAME    = SL-16 R/B
OBJECT_ID      = 1999-039B
CENTER_NAME    = EARTH
REF_FRAME      = TEME
TIME_SYSTEM    = UTC
MEAN_ELEMENT_THEORY = SGP/SGP4

EPOCH          = 2025-11-23T04:46:13.933632
MEAN_MOTION    = 14.81545033
ECCENTRICITY   = .0013647
INCLINATION    = 98.0151
RA_OF_ASC_NODE = 21.3462
ARG_OF_PERICENTER = 240.4485
MEAN_ANOMALY   = 119.5367

EPHEMERIS_TYPE = 0
CLASSIFICATION_TYPE = U
NORAD_CAT_ID   = 25861
ELEMENT_SET_NO = 999
REV_AT_EPOCH   = 42109
BSTAR          = .96233E-4
MEAN_MOTION_DOT = .702E-5
MEAN_MOTION_DDOT = 0

CCSDS_OMM_VERS = 2.0
CREATION_DATE  = 
ORIGINATOR     = 

OBJECT_NAME    = DELTA 2 R/B
OBJECT_ID      = 1999-041E
CENTER_NAME    = EARTH
REF_FRAME      = TEME
TIME_SYSTEM    = UTC
MEAN_ELEMENT_THEORY = SGP/SGP4

EPOCH          = 2025-11-23T07:27:09.607968
MEAN_MOTION    = 14.11330056
ECCENTRICITY   = .0504892
INCLINATION    = 51.7629
RA_OF_ASC_NODE = 6.0009
ARG_OF_PERICENTER = 34.5140
MEAN_ANOMALY   = 328.7510

EPHEMERIS_TYPE = 0
CLASSIFICATION_TYPE = U
NORAD_CAT_ID   = 25876
ELEMENT_SET_NO = 999
REV_AT_EPOCH   = 34800
BSTAR          = .19567E-3
MEAN_MOTION_DOT = .968E-5
MEAN_MOTION_DDOT = 0

CCSDS_OMM_VERS = 2.0
CREATION_DATE  = 
ORIGINATOR     = 

OBJECT_NAME    = HELIOS 1B
OBJECT_ID      = 1999-064A
CENTER_NAME    = EARTH
REF_FRAME      = TEME
TIME_SYSTEM    = UTC
MEAN_ELEMENT_THEORY = SGP/SGP4

EPOCH          = 2025-11-23T07:00:41.374656
MEAN_MOTION    = 14.87165209
ECCENTRICITY   = .000247
INCLINATION    = 98.1752
RA_OF_ASC_NODE = 221.3825
ARG_OF_PERICENTER = 69.5644
MEAN_ANOMALY   = 290.5835

EPHEMERIS_TYPE = 0
CLASSIFICATION_TYPE = U
NORAD_CAT_ID   = 25977
ELEMENT_SET_NO = 999
REV_AT_EPOCH   = 66944
BSTAR          = .19935E-3
MEAN_MOTION_DOT = .1734E-4
MEAN_MOTION_DDOT = 0

CCSDS_OMM_VERS = 2.0
CREATION_DATE  = 
ORIGINATOR     = 

OBJECT_NAME    = TERRA
OBJECT_ID      = 1999-068A
CENTER_NAME    = EARTH
REF_FRAME      = TEME
TIME_SYSTEM    = UTC
MEAN_ELEMENT_THEORY = SGP/SGP4

EPOCH          = 2025-11-23T10:03:12.172032
MEAN_MOTION    = 14.60919992
ECCENTRICITY   = .0003032
INCLINATION    = 97.9774
RA_OF_ASC_NODE = 19.8092
ARG_OF_PERICENTER = 137.3963
MEAN_ANOMALY   = 279.1634

EPHEMERIS_TYPE = 0
CLASSIFICATION_TYPE = U
NORAD_CAT_ID   = 25994
ELEMENT_SET_NO = 999
REV_AT_EPOCH   = 37956
BSTAR          = .12083E-3
MEAN_MOTION_DOT = .547E-5
MEAN_MOTION_DDOT = 0

CCSDS_OMM_VERS = 2.0
CREATION_DATE  = 
ORIGINATOR     = 

OBJECT_NAME    = SL-16 R/B
OBJECT_ID      = 2000-006B
CENTER_NAME    = EARTH
REF_FRAME      = TEME
TIME_SYSTEM    = UTC
MEAN_ELEMENT_THEORY = SGP/SGP4

EPOCH          = 2025-11-23T09:34:22.444032
MEAN_MOTION    = 14.15801321
ECCENTRICITY   = .0017397
INCLINATION    = 71.0018
RA_OF_ASC_NODE = 321.3249
ARG_OF_PERICENTER = 335.8241
MEAN_ANOMALY   = 24.2064

EPHEMERIS_TYPE = 0
CLASSIFICATION_TYPE = U
NORAD_CAT_ID   = 26070
ELEMENT_SET_NO = 999
REV_AT_EPOCH   = 33351
BSTAR          = .40526E-4
MEAN_MOTION_DOT = .32E-6
MEAN_MOTION_DDOT = 0

CCSDS_OMM_VERS = 2.0
CREATION_DATE  = 
ORIGINATOR     = 

OBJECT_NAME    = TITAN 4B R/B
OBJECT_ID      = 2000-047B
CENTER_NAME    = EARTH
REF_FRAME      = TEME
TIME_SYSTEM    = UTC
MEAN_ELEMENT_THEORY = SGP/SGP4

EPOCH          = 2025-11-23T10:48:46.522080
MEAN_MOTION    = 15.08579413
ECCENTRICITY   = .0040615
INCLINATION    = 67.9901
RA_OF_ASC_NODE = 339.0211
ARG_OF_PERICENTER = 167.4818
MEAN_ANOMALY   = 192.7350

EPHEMERIS_TYPE = 0
CLASSIFICATION_TYPE = U
NORAD_CAT_ID   = 26474
ELEMENT_SET_NO = 999
REV_AT_EPOCH   = 37688
BSTAR          = .22821E-3
MEAN_MOTION_DOT = .3508E-4
MEAN_MOTION_DDOT = 0

